METEOSAT-11 (MSG-4)     
1 40732U 15034A   26061.87523514  .00000047  00000+0  00000+0 0  9998
2 40732   2.9336  71.6910 0001801 270.7176 142.7489  1.00265616  6159
ELEKTRO-L 2             
1 41105U 15074A   26061.88740795 -.00000131  00000+0  00000+0 0  9995
2 41105   6.4268  71.8299 0003495 235.4549 158.3340  1.00270708 37445
INSAT-3DR               
1 41752U 16054A   26061.87316485 -.00000093  00000+0  00000+0 0  9993
2 41752   0.0429  97.4429 0013372 184.1455 267.3678  1.00272242 34753
HIMAWARI-9              
1 41836U 16064A   26061.83377823 -.00000291  00000+0  00000+0 0  9996
2 41836   0.0170 189.1650 0001127 171.7739 240.5949  1.00272669 34146
GOES 16                 
1 41866U 16071A   26061.63873293 -.00000108  00000+0  00000+0 0  9994
2 41866   0.1427  90.2616 0002601 216.0510 339.3388  1.00271558 34035
FENGYUN 4A              
1 41882U 16077A   26061.32738589 -.00000374  00000+0  00000+0 0  9997
2 41882   2.0502  81.4469 0006390 133.8252 186.1956  1.00262530 33852
CYGFM05                 
1 41884U 16078A   26061.88191076  .00027874  00000+0  45143-3 0  9999
2 41884  34.9565 242.0476 0006933 227.0708 132.9434 15.51768101512202
CYGFM04                 
1 41885U 16078B   26061.75347913  .00033809  00000+0  48392-3 0  9993
2 41885  34.9318 215.2099 0006069 259.5153 100.4887 15.55134948512387
CYGFM02                 
1 41886U 16078C   26061.85691097  .00045702  00000+0  60564-3 0  9990
2 41886  34.9405 211.5722 0007054 260.5678  99.4249 15.57149529512546
CYGFM01                 
1 41887U 16078D   26061.91102206  .00028729  00000+0  45806-3 0  9999
2 41887  34.9394 243.6807 0006498 218.7493 141.2764 15.52200156512159
CYGFM08                 
1 41888U 16078E   26061.83333584  .00031637  00000+0  47772-3 0  9992
2 41888  34.9427 226.1438 0008125 243.3728 116.6163 15.53671040512386
CYGFM07                 
1 41890U 16078G   26061.80295089  .00032976  00000+0  48570-3 0  9993
2 41890  34.9445 214.8351 0006682 263.2097  96.7866 15.54357251512400
CYGFM03                 
1 41891U 16078H   26061.77407582  .00023532  00000+0  34714-3 0  9996
2 41891  34.9401 217.0068 0005772 249.3234 110.6871 15.54370065512376
FENGYUN 3D              
1 43010U 17072A   26061.94092653 -.00000195  00000+0 -70248-4 0  9999
2 43010  99.0011  34.5059 0001881  26.8688 333.2585 14.19711836429917
NOAA 20 (JPSS-1)        
1 43013U 17073A   26061.92084190  .00000091  00000+0  64075-4 0  9992
2 43013  98.7685   2.3756 0000897 146.0304 214.0929 14.19533954429399
GOES 17                 
1 43226U 18022A   26061.85564839 -.00000198  00000+0  00000+0 0  9990
2 43226   0.6641  87.5864 0002331 219.2912  72.2783  1.00270461 29358
FENGYUN 2H              
1 43491U 18050A   26061.89526954 -.00000142  00000+0  00000+0 0  9994
2 43491   2.7565  80.3709 0002016 173.4098 308.2405  1.00272604 28370
